{
  "type": "FeatureCollection",
  "features": [
    {
      "type": "Feature",
      "properties": {
        "norad_id": 66661,
        "name": "SNUGLITE-III",
        "group": "last-30-days",
        "lat": 38.343565475963246,
        "lon": -82.25309994799441,
        "alt_km": 593.6247326957027,
        "timestamp": "2025-12-22T20:43:44.564402+00:00",
        "meta_object_name": "SNUGLITE-III",
        "meta_object_id": "2025-274M",
        "meta_epoch": "2025-12-22T07:41:20.291136",
        "meta_mean_motion": 14.9314392,
        "meta_eccentricity": 0.00132803,
        "meta_inclination": 97.7405,
        "meta_ra_of_asc_node": 283.3886,
        "meta_arg_of_pericenter": 246.812,
        "meta_mean_anomaly": 113.1701,
        "meta_ephemeris_type": 0,
        "meta_classification_type": "U",
        "meta_norad_cat_id": 66661,
        "meta_element_set_no": 999,
        "meta_rev_at_epoch": 383,
        "meta_bstar": 0.00019528622,
        "meta_mean_motion_dot": 1.983e-05,
        "meta_mean_motion_ddot": 0,
        "tle_line1": "1 66661U 25274M   25356.32037374  .00001983  00000+0  19529-3 0  9994",
        "tle_line2": "2 66661  97.7405 283.3886 0013280 246.8120 113.1701 14.93143920  3838"
      },
      "geometry": {
        "type": "Point",
        "coordinates": [
          -82.25309994799441,
          38.343565475963246
        ]
      }
    },
    {
      "type": "Feature",
      "properties": {
        "norad_id": 66662,
        "name": "2025-274N",
        "group": "last-30-days",
        "lat": 43.59231649397276,
        "lon": -83.51476842173626,
        "alt_km": 593.3102909737954,
        "timestamp": "2025-12-22T20:43:44.564414+00:00",
        "meta_object_name": "2025-274N",
        "meta_object_id": "2025-274N",
        "meta_epoch": "2025-12-22T07:39:56.077056",
        "meta_mean_motion": 14.93198651,
        "meta_eccentricity": 0.00137484,
        "meta_inclination": 97.7407,
        "meta_ra_of_asc_node": 283.3901,
        "meta_arg_of_pericenter": 246.6235,
        "meta_mean_anomaly": 113.3538,
        "meta_ephemeris_type": 0,
        "meta_classification_type": "U",
        "meta_norad_cat_id": 66662,
        "meta_element_set_no": 999,
        "meta_rev_at_epoch": 383,
        "meta_bstar": 0.00020990322,
        "meta_mean_motion_dot": 2.139e-05,
        "meta_mean_motion_ddot": 0,
        "tle_line1": "1 66662U 25274N   25356.31939904  .00002139  00000+0  20990-3 0  9992",
        "tle_line2": "2 66662  97.7407 283.3901 0013748 246.6235 113.3538 14.93198651  3834"
      },
      "geometry": {
        "type": "Point",
        "coordinates": [
          -83.51476842173626,
          43.59231649397276
        ]
      }
    },
    {
      "type": "Feature",
      "properties": {
        "norad_id": 66663,
        "name": "KSLV-II R/B",
        "group": "last-30-days",
        "lat": 77.90626809764872,
        "lon": -115.30333758965358,
        "alt_km": 605.0593830919406,
        "timestamp": "2025-12-22T20:43:44.564424+00:00",
        "meta_object_name": "KSLV-II R/B",
        "meta_object_id": "2025-274P",
        "meta_epoch": "2025-12-22T01:07:29.295840",
        "meta_mean_motion": 14.97514647,
        "meta_eccentricity": 0.00594924,
        "meta_inclination": 97.7422,
        "meta_ra_of_asc_node": 283.3033,
        "meta_arg_of_pericenter": 286.9981,
        "meta_mean_anomaly": 72.4727,
        "meta_ephemeris_type": 0,
        "meta_classification_type": "U",
        "meta_norad_cat_id": 66663,
        "meta_element_set_no": 999,
        "meta_rev_at_epoch": 380,
        "meta_bstar": 0.0016588708,
        "meta_mean_motion_dot": 0.00020039,
        "meta_mean_motion_ddot": 0,
        "tle_line1": "1 66663U 25274P   25356.04686685  .00020039  00000+0  16589-2 0  9995",
        "tle_line2": "2 66663  97.7422 283.3033 0059492 286.9981  72.4727 14.97514647  3802"
      },
      "geometry": {
        "type": "Point",
        "coordinates": [
          -115.30333758965358,
          77.90626809764872
        ]
      }
    },
    {
      "type": "Feature",
      "properties": {
        "norad_id": 66664,
        "name": "SOYUZ-MS 28",
        "group": "last-30-days",
        "lat": 19.29239028286059,
        "lon": 108.44229871863016,
        "alt_km": 415.70439274601995,
        "timestamp": "2025-12-22T20:43:44.564433+00:00",
        "meta_object_name": "SOYUZ-MS 28",
        "meta_object_id": "2025-275A",
        "meta_epoch": "2025-12-22T12:53:01.598784",
        "meta_mean_motion": 15.49728746,
        "meta_eccentricity": 0.00031539,
        "meta_inclination": 51.6324,
        "meta_ra_of_asc_node": 93.9618,
        "meta_arg_of_pericenter": 285.9755,
        "meta_mean_anomaly": 74.0886,
        "meta_ephemeris_type": 0,
        "meta_classification_type": "U",
        "meta_norad_cat_id": 66664,
        "meta_element_set_no": 999,
        "meta_rev_at_epoch": 128,
        "meta_bstar": 0.00021249665,
        "meta_mean_motion_dot": 0.00011576,
        "meta_mean_motion_ddot": 0,
        "tle_line1": "1 66664U 25275A   25356.53682406  .00011576  00000+0  21250-3 0  9996",
        "tle_line2": "2 66664  51.6324  93.9618 0003153 285.9755  74.0886 15.49728746  1287"
      },
      "geometry": {
        "type": "Point",
        "coordinates": [
          108.44229871863016,
          19.29239028286059
        ]
      }
    },
    {
      "type": "Feature",
      "properties": {
        "norad_id": 66666,
        "name": "FORMOSAT-8A",
        "group": "last-30-days",
        "lat": 11.366132859183358,
        "lon": -109.79197736209304,
        "alt_km": 564.8577803262797,
        "timestamp": "2025-12-22T20:43:44.564444+00:00",
        "meta_object_name": "FORMOSAT-8A",
        "meta_object_id": "2025-276A",
        "meta_epoch": "2025-12-22T10:22:36.748128",
        "meta_mean_motion": 15.00342143,
        "meta_eccentricity": 0.000384,
        "meta_inclination": 97.6579,
        "meta_ra_of_asc_node": 68.2335,
        "meta_arg_of_pericenter": 194.3115,
        "meta_mean_anomaly": 165.8,
        "meta_ephemeris_type": 0,
        "meta_classification_type": "U",
        "meta_norad_cat_id": 66666,
        "meta_element_set_no": 999,
        "meta_rev_at_epoch": 354,
        "meta_bstar": 0.00040111361,
        "meta_mean_motion_dot": 4.975e-05,
        "meta_mean_motion_ddot": 0,
        "tle_line1": "1 66666U 25276A   25356.43236977  .00004975  00000+0  40111-3 0  9998",
        "tle_line2": "2 66666  97.6579  68.2335 0003840 194.3115 165.8000 15.00342143  3546"
      },
      "geometry": {
        "type": "Point",
        "coordinates": [
          -109.79197736209304,
          11.366132859183358
        ]
      }
    },
    {
      "type": "Feature",
      "properties": {
        "norad_id": 66667,
        "name": "PELICAN-5",
        "group": "last-30-days",
        "lat": -35.588116345829555,
        "lon": -116.90719186525732,
        "alt_km": 516.0715240220234,
        "timestamp": "2025-12-22T20:43:44.564454+00:00",
        "meta_object_name": "PELICAN-5",
        "meta_object_id": "2025-276B",
        "meta_epoch": "2025-12-22T11:52:12.709056",
        "meta_mean_motion": 15.17771207,
        "meta_eccentricity": 0.00063666,
        "meta_inclination": 97.453,
        "meta_ra_of_asc_node": 68.1048,
        "meta_arg_of_pericenter": 163.2465,
        "meta_mean_anomaly": 196.898,
        "meta_ephemeris_type": 0,
        "meta_classification_type": "U",
        "meta_norad_cat_id": 66667,
        "meta_element_set_no": 999,
        "meta_rev_at_epoch": 360,
        "meta_bstar": 0.005866406,
        "meta_mean_motion_dot": 0.0012035,
        "meta_mean_motion_ddot": 0,
        "tle_line1": "1 66667U 25276B   25356.49459154  .00120350  00000+0  58664-2 0  9996",
        "tle_line2": "2 66667  97.4530  68.1048 0006366 163.2465 196.8980 15.17771207  3604"
      },
      "geometry": {
        "type": "Point",
        "coordinates": [
          -116.90719186525732,
          -35.588116345829555
        ]
      }
    },
    {
      "type": "Feature",
      "properties": {
        "norad_id": 66668,
        "name": "TRANSPORTER-15 C",
        "group": "last-30-days",
        "lat": 39.196143828818535,
        "lon": -105.49983316193563,
        "alt_km": 514.7925296951698,
        "timestamp": "2025-12-22T20:43:44.564464+00:00",
        "meta_object_name": "TRANSPORTER-15 C",
        "meta_object_id": "2025-276C",
        "meta_epoch": "2025-12-22T12:12:24.823296",
        "meta_mean_motion": 15.18687942,
        "meta_eccentricity": 0.00169542,
        "meta_inclination": 97.43,
        "meta_ra_of_asc_node": 68.0421,
        "meta_arg_of_pericenter": 286.8169,
        "meta_mean_anomaly": 73.1206,
        "meta_ephemeris_type": 0,
        "meta_classification_type": "U",
        "meta_norad_cat_id": 66668,
        "meta_element_set_no": 999,
        "meta_rev_at_epoch": 360,
        "meta_bstar": 0.037723283,
        "meta_mean_motion_dot": 0.00840908,
        "meta_mean_motion_ddot": 0,
        "tle_line1": "1 66668U 25276C   25356.50862064  .00840908  00000+0  37723-1 0  9997",
        "tle_line2": "2 66668  97.4300  68.0421 0016954 286.8169  73.1206 15.18687942  3602"
      },
      "geometry": {
        "type": "Point",
        "coordinates": [
          -105.49983316193563,
          39.196143828818535
        ]
      }
    }
  ]
}